[{"OBJECT_NAME":"STARLINK-4218","OBJECT_ID":"2022-076AR","EPOCH":"2026-03-09T11:00:11.349216","MEAN_MOTION":15.08843262,"ECCENTRICITY":0.00013847,"INCLINATION":53.2165,"RA_OF_ASC_NODE":85.1588,"ARG_OF_PERICENTER":75.6263,"MEAN_ANOMALY":284.4883,"EPHEMERIS_TYPE":0,"CLASSIFICATION_TYPE":"U","NORAD_CAT_ID":53025,"ELEMENT_SET_NO":999,"REV_AT_EPOCH":20295,"BSTAR":0.00014796428,"MEAN_MOTION_DOT":2.068e-5,"MEAN_MOTION_DDOT":0},{"OBJECT_NAME":"AAC-HSI-SAT1","OBJECT_ID":"2023-054AZ","EPOCH":"2026-03-09T21:58:39.446112","MEAN_MOTION":15.121108,"ECCENTRICITY":0.00115868,"INCLINATION":97.3836,"RA_OF_ASC_NODE":308.6521,"ARG_OF_PERICENTER":105.3166,"MEAN_ANOMALY":254.9346,"EPHEMERIS_TYPE":0,"CLASSIFICATION_TYPE":"U","NORAD_CAT_ID":56225,"ELEMENT_SET_NO":999,"REV_AT_EPOCH":16036,"BSTAR":0.00016323049,"MEAN_MOTION_DOT":2.752e-5,"MEAN_MOTION_DDOT":0}]
